LANDSAT-8               
1 39084U 13008A   22040.14983439  .00000187  00000-0  51581-4 0  9995
2 39084  98.1981 112.3391 0001295 101.4999 258.6345 14.57117124478311